{"type": "FeatureCollection", "features": [ {"type": "Feature", "properties": {"norad_id": 33492, "name": "GOSAT (IBUKI)", "group": "resource", "lat": -25.08705027541245, "lon": 103.64419538707061, "alt_km": 674.9151772682098, "timestamp": "2025-12-17T07:00:46.548271+00:00", "meta": {"OBJECT_NAME": "GOSAT (IBUKI)", "OBJECT_ID": "2009-002A", "EPOCH": "2025-12-16T21:18:35.870688", "MEAN_MOTION": 14.67534009, "ECCENTRICITY": 9.587e-05, "INCLINATION": 98.0772, "RA_OF_ASC_NODE": 99.4336, "ARG_OF_PERICENTER": 97.7254, "MEAN_ANOMALY": 262.4059, "EPHEMERIS_TYPE": 0, "CLASSIFICATION_TYPE": "U", "NORAD_CAT_ID": 33492, "ELEMENT_SET_NO": 999, "REV_AT_EPOCH": 90472, "BSTAR": 0.00014510778, "MEAN_MOTION_DOT": 7.75e-06, "MEAN_MOTION_DDOT": 0}, "tle": {"line1": "1 33492U 09002A   25350.88791517  .00000775  00000+0  14511-3 0  9996", "line2": "2 33492  98.0772  99.4336 0000958  97.7254 262.4059 14.67534009904725"}}, "geometry": {"type": "Point", "coordinates": [103.64419538707061, -25.08705027541245]}}, {"type": "Feature", "properties": {"norad_id": 35681, "name": "DEIMOS-1", "group": "resource", "lat": 6.104034578872438, "lon": -27.48676198623136, "alt_km": 647.877826434541, "timestamp": "2025-12-17T07:00:46.548283+00:00", "meta": {"OBJECT_NAME": "DEIMOS-1", "OBJECT_ID": "2009-041A", "EPOCH": "2025-12-16T23:42:55.605312", "MEAN_MOTION": 14.74960233, "ECCENTRICITY": 0.00026462, "INCLINATION": 97.7142, "RA_OF_ASC_NODE": 151.3929, "ARG_OF_PERICENTER": 71.8656, "MEAN_ANOMALY": 288.2842, "EPHEMERIS_TYPE": 0, "CLASSIFICATION_TYPE": "U", "NORAD_CAT_ID": 35681, "ELEMENT_SET_NO": 999, "REV_AT_EPOCH": 88002, "BSTAR": 0.0001105053, "MEAN_MOTION_DOT": 6.95e-06, "MEAN_MOTION_DDOT": 0}, "tle": {"line1": "1 35681U 09041A   25350.98814358  .00000695  00000+0  11051-3 0  9998", "line2": "2 35681  97.7142 151.3929 0002646  71.8656 288.2842 14.74960233880027"}}, "geometry": {"type": "Point", "coordinates": [-27.48676198623136, 6.104034578872438]}}, {"type": "Feature", "properties": {"norad_id": 35682, "name": "DUBAISAT-1", "group": "resource", "lat": 74.73246400746305, "lon": -27.172614742958586, "alt_km": 645.600074426804, "timestamp": "2025-12-17T07:00:46.548294+00:00", "meta": {"OBJECT_NAME": "DUBAISAT-1", "OBJECT_ID": "2009-041B", "EPOCH": "2025-12-16T22:24:16.087392", "MEAN_MOTION": 14.74615826, "ECCENTRICITY": 0.00093782, "INCLINATION": 97.9794, "RA_OF_ASC_NODE": 121.5516, "ARG_OF_PERICENTER": 299.6318, "MEAN_ANOMALY": 60.3957, "EPHEMERIS_TYPE": 0, "CLASSIFICATION_TYPE": "U", "NORAD_CAT_ID": 35682, "ELEMENT_SET_NO": 999, "REV_AT_EPOCH": 87823, "BSTAR": 0.00018207256, "MEAN_MOTION_DOT": 1.164e-05, "MEAN_MOTION_DDOT": 0}, "tle": {"line1": "1 35682U 09041B   25350.93351953  .00001164  00000+0  18207-3 0  9993", "line2": "2 35682  97.9794 121.5516 0009378 299.6318  60.3957 14.74615826878239"}}, "geometry": {"type": "Point", "coordinates": [-27.172614742958586, 74.73246400746305]}}, {"type": "Feature", "properties": {"norad_id": 35931, "name": "OCEANSAT-2", "group": "resource", "lat": 45.77884731504851, "lon": 179.9750243065269, "alt_km": 893.1945637001954, "timestamp": "2025-12-17T07:00:46.548306+00:00", "meta": {"OBJECT_NAME": "OCEANSAT-2", "OBJECT_ID": "2009-051A", "EPOCH": "2025-12-16T23:30:56.225088", "MEAN_MOTION": 13.99623785, "ECCENTRICITY": 0.00160976, "INCLINATION": 98.2219, "RA_OF_ASC_NODE": 351.1504, "ARG_OF_PERICENTER": 33.9501, "MEAN_ANOMALY": 326.2692, "EPHEMERIS_TYPE": 0, "CLASSIFICATION_TYPE": "U", "NORAD_CAT_ID": 35931, "ELEMENT_SET_NO": 999, "REV_AT_EPOCH": 85384, "BSTAR": -6.7762249e-05, "MEAN_MOTION_DOT": -1.37e-06, "MEAN_MOTION_DDOT": 0}, "tle": {"line1": "1 35931U 09051A   25350.97981742 -.00000137  00000+0 -67762-4 0  9992", "line2": "2 35931  98.2219 351.1504 0016097  33.9501 326.2692 13.99623785853848"}}, "geometry": {"type": "Point", "coordinates": [179.9750243065269, 45.77884731504851]}}, {"type": "Feature", "properties": {"norad_id": 35946, "name": "WORLDVIEW-2 (WV-2)", "group": "resource", "lat": 21.281747906953395, "lon": -114.35494389478232, "alt_km": 766.4078563797848, "timestamp": "2025-12-17T07:00:46.548317+00:00", "meta": {"OBJECT_NAME": "WORLDVIEW-2 (WV-2)", "OBJECT_ID": "2009-055A", "EPOCH": "2025-12-16T23:35:53.377152", "MEAN_MOTION": 14.37725844, "ECCENTRICITY": 0.00050528, "INCLINATION": 98.4785, "RA_OF_ASC_NODE": 62.0095, "ARG_OF_PERICENTER": 60.3232, "MEAN_ANOMALY": 299.8457, "EPHEMERIS_TYPE": 0, "CLASSIFICATION_TYPE": "U", "NORAD_CAT_ID": 35946, "ELEMENT_SET_NO": 999, "REV_AT_EPOCH": 84946, "BSTAR": 6.5815478e-05, "MEAN_MOTION_DOT": 1.54e-06, "MEAN_MOTION_DDOT": 0}, "tle": {"line1": "1 35946U 09055A   25350.98325668  .00000154  00000+0  65815-4 0  9996", "line2": "2 35946  98.4785  62.0095 0005052  60.3232 299.8457 14.37725844849460"}}, "geometry": {"type": "Point", "coordinates": [-114.35494389478232, 21.281747906953395]}}, {"type": "Feature", "properties": {"norad_id": 36036, "name": "SMOS", "group": "resource", "lat": -46.23096322548596, "lon": -12.641469167268449, "alt_km": 766.7303220667636, "timestamp": "2025-12-17T07:00:46.548328+00:00", "meta": {"OBJECT_NAME": "SMOS", "OBJECT_ID": "2009-059A", "EPOCH": "2025-12-16T23:17:27.810528", "MEAN_MOTION": 14.39744975, "ECCENTRICITY": 0.00010997, "INCLINATION": 98.438, "RA_OF_ASC_NODE": 175.9562, "ARG_OF_PERICENTER": 82.8874, "MEAN_ANOMALY": 277.244, "EPHEMERIS_TYPE": 0, "CLASSIFICATION_TYPE": "U", "NORAD_CAT_ID": 36036, "ELEMENT_SET_NO": 999, "REV_AT_EPOCH": 84723, "BSTAR": 0.00012348712, "MEAN_MOTION_DOT": 3.43e-06, "MEAN_MOTION_DDOT": 0}, "tle": {"line1": "1 36036U 09059A   25350.97046077  .00000343  00000+0  12349-3 0  9997", "line2": "2 36036  98.4380 175.9562 0001099  82.8874 277.2440 14.39744975847236"}}, "geometry": {"type": "Point", "coordinates": [-12.641469167268449, -46.23096322548596]}}, {"type": "Feature", "properties": {"norad_id": 36110, "name": "YAOGAN-7", "group": "resource", "lat": -45.91277257328912, "lon": -118.58740854577266, "alt_km": 632.2179628285448, "timestamp": "2025-12-17T07:00:46.548339+00:00", "meta": {"OBJECT_NAME": "YAOGAN-7", "OBJECT_ID": "2009-069A", "EPOCH": "2025-12-16T23:05:50.067456", "MEAN_MOTION": 14.77738719, "ECCENTRICITY": 0.00233331, "INCLINATION": 98.0297, "RA_OF_ASC_NODE": 232.7042, "ARG_OF_PERICENTER": 266.8851, "MEAN_ANOMALY": 92.9689, "EPHEMERIS_TYPE": 0, "CLASSIFICATION_TYPE": "U", "NORAD_CAT_ID": 36110, "ELEMENT_SET_NO": 999, "REV_AT_EPOCH": 86271, "BSTAR": 8.6172738e-05, "MEAN_MOTION_DOT": 5.67e-06, "MEAN_MOTION_DDOT": 0}, "tle": {"line1": "1 36110U 09069A   25350.96238504  .00000567  00000+0  86173-4 0  9993", "line2": "2 36110  98.0297 232.7042 0023333 266.8851  92.9689 14.77738719862719"}}, "geometry": {"type": "Point", "coordinates": [-118.58740854577266, -45.91277257328912]}}, {"type": "Feature", "properties": {"norad_id": 36605, "name": "TANDEM-X", "group": "resource", "lat": 23.069707183396066, "lon": 179.79856054603806, "alt_km": 507.82295308632547, "timestamp": "2025-12-17T07:00:46.548349+00:00", "meta": {"OBJECT_NAME": "TANDEM-X", "OBJECT_ID": "2010-030A", "EPOCH": "2025-12-16T12:56:12.065856", "MEAN_MOTION": 15.19147751, "ECCENTRICITY": 0.00018632, "INCLINATION": 97.4444, "RA_OF_ASC_NODE": 355.8639, "ARG_OF_PERICENTER": 80.5991, "MEAN_ANOMALY": 279.5455, "EPHEMERIS_TYPE": 0, "CLASSIFICATION_TYPE": "U", "NORAD_CAT_ID": 36605, "ELEMENT_SET_NO": 999, "REV_AT_EPOCH": 85891, "BSTAR": 5.7396889e-05, "MEAN_MOTION_DOT": 1.138e-05, "MEAN_MOTION_DDOT": 0}, "tle": {"line1": "1 36605U 10030A   25350.53902854  .00001138  00000+0  57397-4 0  9992", "line2": "2 36605  97.4444 355.8639 0001863  80.5991 279.5455 15.19147751858912"}}, "geometry": {"type": "Point", "coordinates": [179.79856054603806, 23.069707183396066]}}, {"type": "Feature", "properties": {"norad_id": 36795, "name": "CARTOSAT-2B", "group": "resource", "lat": -74.82783114276027, "lon": -170.12537398381858, "alt_km": 649.4676048983747, "timestamp": "2025-12-17T07:00:46.548360+00:00", "meta": {"OBJECT_NAME": "CARTOSAT-2B", "OBJECT_ID": "2010-035A", "EPOCH": "2025-12-16T23:21:32.215392", "MEAN_MOTION": 14.78731176, "ECCENTRICITY": 0.00129496, "INCLINATION": 97.7854, "RA_OF_ASC_NODE": 39.8664, "ARG_OF_PERICENTER": 63.9528, "MEAN_ANOMALY": 296.3015, "EPHEMERIS_TYPE": 0, "CLASSIFICATION_TYPE": "U", "NORAD_CAT_ID": 36795, "ELEMENT_SET_NO": 999, "REV_AT_EPOCH": 83292, "BSTAR": 0.00011215449, "MEAN_MOTION_DOT": 7.74e-06, "MEAN_MOTION_DDOT": 0}, "tle": {"line1": "1 36795U 10035A   25350.97328953  .00000774  00000+0  11215-3 0  9990", "line2": "2 36795  97.7854  39.8664 0012949  63.9528 296.3015 14.78731176832921"}}, "geometry": {"type": "Point", "coordinates": [-170.12537398381858, -74.82783114276027]}}, {"type": "Feature", "properties": {"norad_id": 36834, "name": "YAOGAN-10", "group": "resource", "lat": 71.75253083532752, "lon": -13.876891937949955, "alt_km": 606.9289454996788, "timestamp": "2025-12-17T07:00:46.548371+00:00", "meta": {"OBJECT_NAME": "YAOGAN-10", "OBJECT_ID": "2010-038A", "EPOCH": "2025-12-17T00:34:47.910432", "MEAN_MOTION": 14.84623084, "ECCENTRICITY": 0.00013307, "INCLINATION": 97.9142, "RA_OF_ASC_NODE": 10.813, "ARG_OF_PERICENTER": 81.167, "MEAN_ANOMALY": 0.6718, "EPHEMERIS_TYPE": 0, "CLASSIFICATION_TYPE": "U", "NORAD_CAT_ID": 36834, "ELEMENT_SET_NO": 999, "REV_AT_EPOCH": 83017, "BSTAR": 0.00017427253, "MEAN_MOTION_DOT": 1.419e-05, "MEAN_MOTION_DDOT": 0}, "tle": {"line1": "1 36834U 10038A   25351.02416563  .00001419  00000+0  17427-3 0  9997", "line2": "2 36834  97.9142  10.8130 0001330  81.1670   0.6718 14.84623084830172"}}, "geometry": {"type": "Point", "coordinates": [-13.876891937949955, 71.75253083532752]}}]}